LEGION 1                
1 59625U 24081A   26194.28600052  .00002124  00000+0  11137-3 0  9991
2 59625  97.5014 271.8660 0007685 277.4200  82.6160 15.16836586121492
LEGION 2                
1 59626U 24081B   26194.25038880  .00001992  00000+0  10471-3 0  9995
2 59626  97.5015 271.9276 0010107 240.9656 119.0565 15.16815113121498
LEGION 3                
1 60452U 24146A   26194.22743789  .00002031  00000+0  11861-3 0  9993
2 60452  45.0010 250.9361 0008369 323.1718  36.8585 15.15649032105979
LEGION 4                
1 60453U 24146B   26194.29312892  .00002338  00000+0  13440-3 0  9993
2 60453  45.0030 342.4507 0008921 101.7251 258.4629 15.15672751104836
LEGION 5                
1 62900U 25025A   26194.02998321  .00001917  00000+0  11145-3 0  9999
2 62900  44.9999 162.8263 0008411 291.8669  68.1315 15.16065621 78413
LEGION 6                
1 62901U 25025B   26194.09458909  .00001582  00000+0  95333-4 0  9990
2 62901  45.0016  71.6221 0010829 265.9500  94.0141 15.15680636 79569
