{"fetched_at":"2026-07-13T18:17:05.840Z","source":"https://celestrak.org/NORAD/elements/gp.php?NAME=LEGION&FORMAT=JSON","constellation":"maxar-legion","records":[{"OBJECT_NAME":"LEGION 1","OBJECT_ID":"2024-081A","EPOCH":"2026-07-13T06:51:50.444928","CLASSIFICATION_TYPE":"U","MEAN_MOTION":15.16836586,"ECCENTRICITY":0.00076852,"INCLINATION":97.5014,"RA_OF_ASC_NODE":271.866,"ARG_OF_PERICENTER":277.42,"MEAN_ANOMALY":82.616,"EPHEMERIS_TYPE":0,"NORAD_CAT_ID":59625,"ELEMENT_SET_NO":999,"REV_AT_EPOCH":12149,"BSTAR":0.00011137105,"MEAN_MOTION_DOT":0.00002124,"MEAN_MOTION_DDOT":0},{"OBJECT_NAME":"LEGION 2","OBJECT_ID":"2024-081B","EPOCH":"2026-07-13T06:00:33.592320","CLASSIFICATION_TYPE":"U","MEAN_MOTION":15.16815113,"ECCENTRICITY":0.00101072,"INCLINATION":97.5015,"RA_OF_ASC_NODE":271.9276,"ARG_OF_PERICENTER":240.9656,"MEAN_ANOMALY":119.0565,"EPHEMERIS_TYPE":0,"NORAD_CAT_ID":59626,"ELEMENT_SET_NO":999,"REV_AT_EPOCH":12149,"BSTAR":0.00010471411,"MEAN_MOTION_DOT":0.00001992,"MEAN_MOTION_DDOT":0},{"OBJECT_NAME":"LEGION 3","OBJECT_ID":"2024-146A","EPOCH":"2026-07-13T05:27:30.633696","CLASSIFICATION_TYPE":"U","MEAN_MOTION":15.15649032,"ECCENTRICITY":0.00083696,"INCLINATION":45.001,"RA_OF_ASC_NODE":250.9361,"ARG_OF_PERICENTER":323.1718,"MEAN_ANOMALY":36.8585,"EPHEMERIS_TYPE":0,"NORAD_CAT_ID":60452,"ELEMENT_SET_NO":999,"REV_AT_EPOCH":10597,"BSTAR":0.00011860787,"MEAN_MOTION_DOT":0.00002031,"MEAN_MOTION_DDOT":0},{"OBJECT_NAME":"LEGION 4","OBJECT_ID":"2024-146B","EPOCH":"2026-07-13T07:02:06.338688","CLASSIFICATION_TYPE":"U","MEAN_MOTION":15.15672751,"ECCENTRICITY":0.00089212,"INCLINATION":45.003,"RA_OF_ASC_NODE":342.4507,"ARG_OF_PERICENTER":101.7251,"MEAN_ANOMALY":258.4629,"EPHEMERIS_TYPE":0,"NORAD_CAT_ID":60453,"ELEMENT_SET_NO":999,"REV_AT_EPOCH":10483,"BSTAR":0.00013439608,"MEAN_MOTION_DOT":0.00002338,"MEAN_MOTION_DDOT":0},{"OBJECT_NAME":"LEGION 5","OBJECT_ID":"2025-025A","EPOCH":"2026-07-13T00:43:10.549344","CLASSIFICATION_TYPE":"U","MEAN_MOTION":15.16065621,"ECCENTRICITY":0.00084115,"INCLINATION":44.9999,"RA_OF_ASC_NODE":162.8263,"ARG_OF_PERICENTER":291.8669,"MEAN_ANOMALY":68.1315,"EPHEMERIS_TYPE":0,"NORAD_CAT_ID":62900,"ELEMENT_SET_NO":999,"REV_AT_EPOCH":7841,"BSTAR":0.00011144521,"MEAN_MOTION_DOT":0.00001917,"MEAN_MOTION_DDOT":0},{"OBJECT_NAME":"LEGION 6","OBJECT_ID":"2025-025B","EPOCH":"2026-07-13T02:16:12.497376","CLASSIFICATION_TYPE":"U","MEAN_MOTION":15.15680636,"ECCENTRICITY":0.00108295,"INCLINATION":45.0016,"RA_OF_ASC_NODE":71.6221,"ARG_OF_PERICENTER":265.95,"MEAN_ANOMALY":94.0141,"EPHEMERIS_TYPE":0,"NORAD_CAT_ID":62901,"ELEMENT_SET_NO":999,"REV_AT_EPOCH":7956,"BSTAR":0.000095333114,"MEAN_MOTION_DOT":0.00001582,"MEAN_MOTION_DDOT":0}]}
